{
  "norad_id": 64290,
  "name": "SXM-10",
  "history": [
    {
      "epoch": "2026-03-28T16:30:38.764224Z",
      "apogee_km": 35797.65073908239,
      "perigee_km": 35775.273986200635,
      "latitude_deg": -0.004983438093075065,
      "longitude_deg": -116.18115436563777,
      "height_km": 35778.7059331832,
      "semi_major_axis_km": 42164.599362641515,
      "eccentricity": 0.00026535,
      "inclination_deg": 0.0393,
      "raan_deg": 33.6034,
      "arg_perigee_deg": 333.9106,
      "mean_anomaly_deg": 310.071,
      "mean_motion_rev_day": 1.00272258
    },
    {
      "epoch": "2026-03-29T03:18:38.644992Z",
      "apogee_km": 35797.770093445695,
      "perigee_km": 35775.589713161884,
      "latitude_deg": -0.002304010686287592,
      "longitude_deg": -116.13138535827234,
      "height_km": 35790.545141154034,
      "semi_major_axis_km": 42164.81690330379,
      "eccentricity": 0.00026302,
      "inclination_deg": 0.0402,
      "raan_deg": 34.673,
      "arg_perigee_deg": 332.3394,
      "mean_anomaly_deg": 113.0144,
      "mean_motion_rev_day": 1.00271482
    },
    {
      "epoch": "2026-03-31T11:29:38.575680Z",
      "apogee_km": 35798.076557077475,
      "perigee_km": 35775.45930207325,
      "latitude_deg": 0.014136994643767171,
      "longitude_deg": -116.18728774399945,
      "height_km": 35792.70345280373,
      "semi_major_axis_km": 42164.904929575365,
      "eccentricity": 0.0002682,
      "inclination_deg": 0.0323,
      "raan_deg": 60.3331,
      "arg_perigee_deg": 309.3532,
      "mean_anomaly_deg": 235.3996,
      "mean_motion_rev_day": 1.00271168
    }
  ]
}